STARLINK-31634          
1 59330U 24057L   26068.34399953 -.00000424  00000+0 -58955-5 0  9993
2 59330  43.0040 189.2481 0001630 278.7256  81.3411 15.27574143109785
LUR-1                   
1 60506U 24149AQ  26068.79566301  .00009121  00000+0  32985-3 0  9998
2 60506  97.3790 148.4255 0002777 309.1571  50.9421 15.28658648 86785
